ONEWEB-0086             
1 45456U 20020AJ  24094.22025401  .00000479  00000+0  13154-2 0  9998
2 45456  87.9036 181.1370 0001652  91.6751 268.4566 13.11417805197109
ONEWEB-0088             
1 45457U 20020AK  24094.19751985 -.00000364  00000+0 -10627-2 0  9995
2 45457  87.9031 181.1098 0001952  99.6247 260.5101 13.11418877197044
ONEWEB-0102             
1 47258U 20100A   24094.45244287  .00000484  00000+0  13094-2 0  9998
2 47258  87.8990 150.8743 0002111 104.1093 256.0270 13.12445237159177
ONEWEB-0109             
1 47259U 20100B   24094.38414923  .00000328  00000+0  87556-3 0  9999
2 47259  87.8990 150.8515 0002013 104.3774 255.7578 13.12443890158993
ONEWEB-0110             
1 47260U 20100C   24093.72183609 -.00000470  00000+0 -13410-2 0  9999
2 47260  87.8984 150.9920 0001892 104.3570 255.7768 13.12442626159074
ONEWEB-0111             
1 47261U 20100D   24093.90765740  .00000368  00000+0  98825-3 0  9990
2 47261  87.8991 150.9482 0001985 103.0549 257.0801 13.12445294158932
ONEWEB-0114             
1 47262U 20100E   24094.09032020 -.00000047  00000+0 -16483-3 0  9996
2 47262  87.8986 150.9308 0002373 110.5651 249.5732 13.12440726158915
ONEWEB-0117             
1 47263U 20100F   24094.38732076  .00000258  00000+0  68118-3 0  9991
2 47263  87.8989 150.8440 0002006  98.8806 261.2550 13.12443651158962
